start=new Date('2023-01-07T00:00:00.000Z').valueOf();
sats=[{"MEAN_ANOMALY":"320.8468","GP_ID":"222345167","ECCENTRICITY":"0.00027460","CLASSIFICATION_TYPE":"U","ELEMENT_SET_NO":"999","EPOCH":"2023-01-06T15:02:23.619264","BSTAR":"-0.00025859000000","SEMIMAJOR_AXIS":"6917.897","OBJECT_NAME":"STARLINK-3890","CENTER_NAME":"EARTH","MEAN_MOTION_DOT":"-0.00004401","TLE_LINE1":"1 52455U 22049E   23006.62666226 -.00004401  00000-0 -25859-3 0  9998","MEAN_MOTION_DDOT":"0.0000000000000","MEAN_ELEMENT_THEORY":"SGP4","ARG_OF_PERICENTER":"39.2722","TLE_LINE2":"2 52455  53.2143 227.8733 0002746  39.2722 320.8468 15.08834628 37283","EPHEMERIS_TYPE":"0","RCS_SIZE":"LARGE","PERIAPSIS":"537.862","REF_FRAME":"TEME","RA_OF_ASC_NODE":"227.8733","LAUNCH_DATE":"2022-05-06","PERIOD":"95.438","NORAD_CAT_ID":"52455","APOAPSIS":"541.661","TIME_SYSTEM":"UTC","OBJECT_ID":"2022-049E","DECAY_DATE":null,"SITE":"AFETR","OBJECT_TYPE":"PAYLOAD","MEAN_MOTION":"15.08834628","REV_AT_EPOCH":"3728","COUNTRY_CODE":"US","FILE":"3734255","INCLINATION":"53.2143"},{"GP_ID":"222344919","MEAN_ANOMALY":"324.3966","CLASSIFICATION_TYPE":"U","ELEMENT_SET_NO":"999","ECCENTRICITY":"0.00028490","EPOCH":"2023-01-06T14:57:06.369696","BSTAR":"-0.00002821100000","OBJECT_NAME":"STARLINK-3896","SEMIMAJOR_AXIS":"6917.900","CENTER_NAME":"EARTH","MEAN_MOTION_DOT":"-0.00000737","MEAN_MOTION_DDOT":"0.0000000000000","TLE_LINE1":"1 52456U 22049F   23006.62299039 -.00000737  00000-0 -28211-4 0  9997","ARG_OF_PERICENTER":"35.7217","MEAN_ELEMENT_THEORY":"SGP4","RCS_SIZE":"LARGE","TLE_LINE2":"2 52456  53.2155 227.8939 0002849  35.7217 324.3966 15.08833449 37281","EPHEMERIS_TYPE":"0","RA_OF_ASC_NODE":"227.8939","PERIOD":"95.438","LAUNCH_DATE":"2022-05-06","PERIAPSIS":"537.795","REF_FRAME":"TEME","TIME_SYSTEM":"UTC","NORAD_CAT_ID":"52456","APOAPSIS":"541.736","DECAY_DATE":null,"OBJECT_TYPE":"PAYLOAD","SITE":"AFETR","MEAN_MOTION":"15.08833449","OBJECT_ID":"2022-049F","FILE":"3734255","INCLINATION":"53.2155","COUNTRY_CODE":"US","REV_AT_EPOCH":"3728"},{"LAUNCH_DATE":"2022-05-06","PERIOD":"95.436","RA_OF_ASC_NODE":"233.5649","REF_FRAME":"TEME","PERIAPSIS":"538.007","TIME_SYSTEM":"UTC","APOAPSIS":"541.362","NORAD_CAT_ID":"52457","OBJECT_TYPE":"PAYLOAD","SITE":"AFETR","MEAN_MOTION":"15.08860009","DECAY_DATE":null,"OBJECT_ID":"2022-049G","INCLINATION":"53.2156","FILE":"3732939","COUNTRY_CODE":"US","REV_AT_EPOCH":"3709","TLE_LINE1":"1 52457U 22049G   23005.36073950  .00004221  00000-0  28302-3 0  9990","MEAN_MOTION_DDOT":"0.0000000000000","MEAN_MOTION_DOT":"0.00004221","ARG_OF_PERICENTER":"36.1822","MEAN_ELEMENT_THEORY":"SGP4","RCS_SIZE":"LARGE","EPHEMERIS_TYPE":"0","TLE_LINE2":"2 52457  53.2156 233.5649 0002425  36.1822 323.9334 15.08860009 37097","BSTAR":"0.00028302000000","OBJECT_NAME":"STARLINK-3899","SEMIMAJOR_AXIS":"6917.819","CENTER_NAME":"EARTH","GP_ID":"222264416","MEAN_ANOMALY":"323.9334","ELEMENT_SET_NO":"999","CLASSIFICATION_TYPE":"U","ECCENTRICITY":"0.00024250","EPOCH":"2023-01-05T08:39:27.892800"},{"RCS_SIZE":"LARGE","TLE_LINE2":"2 52458  53.2136 227.3263 0001753  59.0109 301.1055 15.08829393 37307","EPHEMERIS_TYPE":"0","ARG_OF_PERICENTER":"59.0109","MEAN_ELEMENT_THEORY":"SGP4","MEAN_MOTION_DOT":"-0.00003133","MEAN_MOTION_DDOT":"0.0000000000000","TLE_LINE1":"1 52458U 22049H   23006.74810269 -.00003133  00000-0 -17886-3 0  9994","FILE":"3734255","INCLINATION":"53.2136","REV_AT_EPOCH":"3730","COUNTRY_CODE":"US","DECAY_DATE":null,"OBJECT_TYPE":"PAYLOAD","SITE":"AFETR","MEAN_MOTION":"15.08829393","OBJECT_ID":"2022-049H","TIME_SYSTEM":"UTC","NORAD_CAT_ID":"52458","APOAPSIS":"540.991","RA_OF_ASC_NODE":"227.3263","LAUNCH_DATE":"2022-05-06","PERIOD":"95.438","PERIAPSIS":"538.565","REF_FRAME":"TEME","EPOCH":"2023-01-06T17:57:16.072416","CLASSIFICATION_TYPE":"U","ELEMENT_SET_NO":"999","ECCENTRICITY":"0.00017530","GP_ID":"222344417","MEAN_ANOMALY":"301.1055","CENTER_NAME":"EARTH","OBJECT_NAME":"STARLINK-3898","SEMIMAJOR_AXIS":"6917.913","BSTAR":"-0.00017886000000"},{"TLE_LINE1":"1 52459U 22049J   23006.93207702 -.00001540  00000-0 -78634-4 0  9997","MEAN_MOTION_DDOT":"0.0000000000000","MEAN_MOTION_DOT":"-0.00001540","MEAN_ELEMENT_THEORY":"SGP4","ARG_OF_PERICENTER":"43.2306","EPHEMERIS_TYPE":"0","TLE_LINE2":"2 52459  53.2155 216.4925 0002451  43.2306 316.8878 15.08840263 37465","RCS_SIZE":"LARGE","REF_FRAME":"TEME","PERIAPSIS":"538.049","LAUNCH_DATE":"2022-05-06","PERIOD":"95.438","RA_OF_ASC_NODE":"216.4925","APOAPSIS":"541.440","NORAD_CAT_ID":"52459","TIME_SYSTEM":"UTC","OBJECT_ID":"2022-049J","SITE":"AFETR","OBJECT_TYPE":"PAYLOAD","MEAN_MOTION":"15.08840263","DECAY_DATE":null,"COUNTRY_CODE":"US","REV_AT_EPOCH":"3746","INCLINATION":"53.2155","FILE":"3734255","MEAN_ANOMALY":"316.8878","GP_ID":"222344669","ECCENTRICITY":"0.00024510","ELEMENT_SET_NO":"999","CLASSIFICATION_TYPE":"U","EPOCH":"2023-01-06T22:22:11.454528","BSTAR":"-0.00007863400000","SEMIMAJOR_AXIS":"6917.880","OBJECT_NAME":"STARLINK-3856","CENTER_NAME":"EARTH"},{"MEAN_MOTION_DOT":"0.00000885","TLE_LINE1":"1 52460U 22049K   23006.92934919  .00000885  00000-0  73677-4 0  9996","MEAN_MOTION_DDOT":"0.0000000000000","RCS_SIZE":"LARGE","TLE_LINE2":"2 52460  53.2144 216.5037 0001373  97.2369 262.8779 15.08850273 37462","EPHEMERIS_TYPE":"0","ARG_OF_PERICENTER":"97.2369","MEAN_ELEMENT_THEORY":"SGP4","TIME_SYSTEM":"UTC","NORAD_CAT_ID":"52460","APOAPSIS":"540.664","RA_OF_ASC_NODE":"216.5037","PERIOD":"95.437","LAUNCH_DATE":"2022-05-06","PERIAPSIS":"538.764","REF_FRAME":"TEME","FILE":"3734255","INCLINATION":"53.2144","REV_AT_EPOCH":"3746","COUNTRY_CODE":"US","DECAY_DATE":null,"MEAN_MOTION":"15.08850273","SITE":"AFETR","OBJECT_TYPE":"PAYLOAD","OBJECT_ID":"2022-049K","GP_ID":"222345418","MEAN_ANOMALY":"262.8779","EPOCH":"2023-01-06T22:18:15.770016","CLASSIFICATION_TYPE":"U","ELEMENT_SET_NO":"999","ECCENTRICITY":"0.00013730","BSTAR":"0.00007367700000","CENTER_NAME":"EARTH","OBJECT_NAME":"STARLINK-3865","SEMIMAJOR_AXIS":"6917.849"},{"CENTER_NAME":"EARTH","OBJECT_NAME":"STARLINK-3900","SEMIMAJOR_AXIS":"6917.902","BSTAR":"-0.00015067000000","EPOCH":"2023-01-06T22:18:12.626784","ELEMENT_SET_NO":"999","CLASSIFICATION_TYPE":"U","ECCENTRICITY":"0.00018350","GP_ID":"222343668","MEAN_ANOMALY":"305.2770","INCLINATION":"53.2170","FILE":"3734255","COUNTRY_CODE":"US","REV_AT_EPOCH":"3760","OBJECT_TYPE":"PAYLOAD","SITE":"AFETR","MEAN_MOTION":"15.08833090","DECAY_DATE":null,"OBJECT_ID":"2022-049L","TIME_SYSTEM":"UTC","APOAPSIS":"541.036","NORAD_CAT_ID":"52461","PERIOD":"95.438","LAUNCH_DATE":"2022-05-06","RA_OF_ASC_NODE":"206.5097","REF_FRAME":"TEME","PERIAPSIS":"538.497","RCS_SIZE":"LARGE","EPHEMERIS_TYPE":"0","TLE_LINE2":"2 52461  53.2170 206.5097 0001835  54.8394 305.2770 15.08833090 37604","ARG_OF_PERICENTER":"54.8394","MEAN_ELEMENT_THEORY":"SGP4","MEAN_MOTION_DDOT":"0.0000000000000","TLE_LINE1":"1 52461U 22049L   23006.92931281 -.00002685  00000-0 -15067-3 0  9996","MEAN_MOTION_DOT":"-0.00002685"},{"MEAN_MOTION_DDOT":"0.0000000000000","TLE_LINE1":"1 52462U 22049M   23006.92472457  .00009928  00000-0  64109-3 0  9998","MEAN_MOTION_DOT":"0.00009928","EPHEMERIS_TYPE":"0","TLE_LINE2":"2 52462  53.2144 216.5277 0001723  68.0405 292.0770 15.08834912 37464","RCS_SIZE":"LARGE","MEAN_ELEMENT_THEORY":"SGP4","ARG_OF_PERICENTER":"68.0405","APOAPSIS":"540.953","NORAD_CAT_ID":"52462","TIME_SYSTEM":"UTC","REF_FRAME":"TEME","PERIAPSIS":"538.569","PERIOD":"95.438","LAUNCH_DATE":"2022-05-06","RA_OF_ASC_NODE":"216.5277","REV_AT_EPOCH":"3746","COUNTRY_CODE":"US","INCLINATION":"53.2144","FILE":"3734255","OBJECT_ID":"2022-049M","MEAN_MOTION":"15.08834912","SITE":"AFETR","OBJECT_TYPE":"PAYLOAD","DECAY_DATE":null,"MEAN_ANOMALY":"292.0770","GP_ID":"222343918","EPOCH":"2023-01-06T22:11:36.202848","ECCENTRICITY":"0.00017230","ELEMENT_SET_NO":"999","CLASSIFICATION_TYPE":"U","BSTAR":"0.00064109000000","CENTER_NAME":"EARTH","SEMIMAJOR_AXIS":"6917.896","OBJECT_NAME":"STARLINK-3903"},{"MEAN_MOTION_DOT":"-0.00002245","MEAN_MOTION_DDOT":"0.0000000000000","TLE_LINE1":"1 52463U 22049N   23006.92562317 -.00002245  00000-0 -12298-3 0  9993","RCS_SIZE":"MEDIUM","TLE_LINE2":"2 52463  53.2148 206.5212 0002778  34.0347 326.0823 15.08838530 37609","EPHEMERIS_TYPE":"0","ARG_OF_PERICENTER":"34.0347","MEAN_ELEMENT_THEORY":"SGP4","TIME_SYSTEM":"UTC","NORAD_CAT_ID":"52463","APOAPSIS":"541.672","RA_OF_ASC_NODE":"206.5212","LAUNCH_DATE":"2022-05-06","PERIOD":"95.438","PERIAPSIS":"537.828","REF_FRAME":"TEME","FILE":"3734255","INCLINATION":"53.2148","COUNTRY_CODE":"US","REV_AT_EPOCH":"3760","DECAY_DATE":null,"SITE":"AFETR","OBJECT_TYPE":"PAYLOAD","MEAN_MOTION":"15.08838530","OBJECT_ID":"2022-049N","GP_ID":"222345168","MEAN_ANOMALY":"326.0823","EPOCH":"2023-01-06T22:12:53.841888","CLASSIFICATION_TYPE":"U","ELEMENT_SET_NO":"999","ECCENTRICITY":"0.00027780","BSTAR":"-0.00012298000000","CENTER_NAME":"EARTH","OBJECT_NAME":"STARLINK-3885","SEMIMAJOR_AXIS":"6917.885"},{"BSTAR":"-0.00010483000000","OBJECT_NAME":"STARLINK-3904","SEMIMAJOR_AXIS":"6917.895","CENTER_NAME":"EARTH","GP_ID":"222344920","MEAN_ANOMALY":"324.1946","CLASSIFICATION_TYPE":"U","ELEMENT_SET_NO":"999","ECCENTRICITY":"0.00024460","EPOCH":"2023-01-06T22:16:53.145696","RA_OF_ASC_NODE":"216.5143","LAUNCH_DATE":"2022-05-06","PERIOD":"95.438","PERIAPSIS":"538.068","REF_FRAME":"TEME","TIME_SYSTEM":"UTC","NORAD_CAT_ID":"52464","APOAPSIS":"541.452","DECAY_DATE":null,"SITE":"AFETR","MEAN_MOTION":"15.08835149","OBJECT_TYPE":"PAYLOAD","OBJECT_ID":"2022-049P","FILE":"3734255","INCLINATION":"53.2156","COUNTRY_CODE":"US","REV_AT_EPOCH":"3746","MEAN_MOTION_DOT":"-0.00001956","TLE_LINE1":"1 52464U 22049P   23006.92839289 -.00001956  00000-0 -10483-3 0  9991","MEAN_MOTION_DDOT":"0.0000000000000","ARG_OF_PERICENTER":"35.9210","MEAN_ELEMENT_THEORY":"SGP4","RCS_SIZE":"LARGE","TLE_LINE2":"2 52464  53.2156 216.5143 0002446  35.9210 324.1946 15.08835149 37466","EPHEMERIS_TYPE":"0"}];
